0 PSLV R/B
1 28651U 05017C   13281.97040240  .00000823  00000-0  13487-3 0  6318
2 28651 097.7921 231.6302 0078469 084.4542 317.8596 14.71260181452301
0 PSLV R/B
1 28651U 05017C   13282.99039999  .00000770  00000-0  12666-3 0  6320
2 28651 097.7922 232.6064 0078453 081.2433 320.2477 14.71261923452452
0 PSLV R/B
1 28651U 05017C   13285.84896723  .00000788  00000-0  12944-3 0  6343
2 28651 097.7928 235.3425 0078340 072.2316 340.6217 14.71266099452877
0 PSLV R/B
1 28651U 05017C   13286.86211427  .00000897  00000-0  14638-3 0  6352
2 28651 097.7931 236.3121 0078307 069.0339 306.7609 14.71267378453024
0 PSLV R/B
1 28651U 05017C   13287.95494035  .00001315  00000-0  21091-3 0  6369
2 28651 097.7935 237.3581 0078240 065.5738 334.9369 14.71271294453184
0 PSLV R/B
1 28651U 05017C   13289.46967802  .00000982  00000-0  15953-3 0  6374
2 28651 097.7940 238.8081 0078144 060.7879 077.7895 14.71275973453406
0 PSLV R/B
1 28651U 05017C   13290.48948697  .00001140  00000-0  18388-3 0  6382
2 28651 097.7942 239.7843 0078082 057.5530 079.2634 14.71277971453557
0 PSLV R/B
1 28651U 05017C   13291.50918066  .00001140  00000-0  18383-3 0  6399
2 28651 097.7943 240.7605 0078019 054.3269 080.1284 14.71279845453701
0 PSLV R/B
1 28651U 05017C   13292.52878802  .00001249  00000-0  20070-3 0  6403
2 28651 097.7945 241.7367 0077916 051.0831 080.5623 14.71282014453852
0 PSLV R/B
1 28651U 05017C   13293.94930838  .00001288  00000-0  20682-3 0  6411
2 28651 097.7946 243.0968 0077840 046.5896 044.4497 14.71285650454062
0 PSLV R/B
1 28651U 05017C   13295.51989942  .00001392  00000-0  22294-3 0  6424
2 28651 097.7946 244.6008 0077707 041.5890 083.2542 14.71290218454298
